#aV2023 12  2  0  0  0.00000000     288 DD+AD WGS84 FIT  NGA
## 2290 518400.00000000   300.00000000 60280 0.0000000000000
+   32     1  2  3  4  5  6  7  8  9 10 11 12 13 14 15 16 17
+         18 19 20 21 22 23 24 25 26 27 28 29 30 31 32  0  0
+          0  0  0  0  0  0  0  0  0  0  0  0  0  0  0  0  0
+          0  0  0  0  0  0  0  0  0  0  0  0  0  0  0  0  0
+          0  0  0  0  0  0  0  0  0  0  0  0  0  0  0  0  0
++         2  2  2  2  2  2  2  2  2  2  2  2  2  2  2  2  2
++         2  2  2  2  2  2  2  2  2  2  2  2  2  2  2  0  0
++         0  0  0  0  0  0  0  0  0  0  0  0  0  0  0  0  0
++         0  0  0  0  0  0  0  0  0  0  0  0  0  0  0  0  0
++         0  0  0  0  0  0  0  0  0  0  0  0  0  0  0  0  0
%c cc cc ccc ccc cccc cccc cccc cccc ccccc ccccc ccccc ccccc
%c cc cc ccc ccc cccc cccc cccc cccc ccccc ccccc ccccc ccccc
%f  0.0000000  0.000000000  0.00000000000  0.000000000000000
%f  0.0000000  0.000000000  0.00000000000  0.000000000000000
%i    0    0    0    0      0      0      0      0         0
%i    0    0    0    0      0      0      0      0         0
/*      NGA, ST. LOUIS,MO.                                  
/*   EPHEMERIS COMPUTED FROM 2 DAYS OF DATA                 
/*   EPOCHA v8 SMOOTHER                                     
/*   G2139 IERS2010 SATIGS SATAPC                           
*  2023 12  2 11 45  0.00000000
P  1 -14357.912842  22041.563768   1608.679979    163.501527                    
V  1   -592.516145  -3241.626787  32537.772348      0.003529                    
P  2 -16045.998055  19007.534273   9513.364408   -521.151439                    
V  2   2627.362164 -11371.837703  28884.400613      0.052081                    
P  3 -15802.221590  11945.854814 -17782.091611     25.637464                    
V  3 -22289.188275  -1193.894507  19266.044037      0.268518                    
P  4  -5778.205349  17355.479816 -19201.227145    228.669076                    
V  4 -12826.757266 -20843.548798 -15100.993920      0.102456                    
P  5  24921.797252  -6079.109709   6893.855708   -152.583818                    
V  5   9073.793853   1900.510466 -30252.365860     -0.014388                    
P  6  12064.417082   8174.704764 -22132.219446    489.938225                    
V  6 -14326.415412  24285.175850   1252.667359     -0.109324                    
P  7  -2108.311000  22914.527508  13313.261047     -1.563064                    
V  7 -10447.601564  12857.187130 -25146.375602     -0.097391                    
P  8 -11971.609964   9592.748301  21580.793378   -154.940996                    
V  8 -15040.764885 -23190.118819   2366.403366     -0.019172                    
P  9   4528.155637  23304.935430 -11939.628272     14.434669                    
V  9 -10024.808851 -11498.389384 -26496.781656      0.115272                    
P 10 -17719.624013 -11081.418346  16779.087199    -63.690479                    
V 10  20750.791240  -1302.721895  20979.702621     -0.015095                    
P 11  17888.970420  -3253.460533 -19318.804741   -484.370553                    
V 11 -12109.504488  21432.556635 -14853.884949     -0.156212                    
P 12  17394.440288 -10828.353068 -17140.922141   -453.182227                    
V 12  21103.120850   2984.628005  19925.795903     -0.040171                    
P 13  16142.690213   1667.817520  20865.410221    601.434912                    
V 13   9630.290370  25111.920218  -9157.421817      0.039525                    
P 14  14032.441345  13404.811983  18233.228694    259.580708                    
V 14 -23113.610667   1150.271566  16788.296297      0.106402                    
P 15  10942.669806 -11159.457479  20975.990561    102.894057                    
V 15  17786.148002  21503.290912   2327.361880      0.037883                    
P 16 -26723.201324  -1052.505741   1587.279515   -411.681960                    
V 16  -2177.851485  -2529.975530 -31436.826908      0.069607                    
P 17  12704.810343  23177.532077  -1248.668442    722.576017                    
V 17  -1373.286705   3069.090831  32031.618512     -0.005647                    
P 18   1834.990015 -22190.946900  14351.380427   -495.335808                    
V 18  10969.529634 -14707.680910 -24344.438626     -0.104088                    
P 19  16303.845848  18447.750701 -10599.906458    406.899576                    
V 19   3654.743205  12663.879664  27831.406660      0.052297                    
P 20  25756.112421   -306.577631  -6024.206495    398.694461                    
V 20  -7078.505576   4484.648614 -30408.541306     -0.019244                    
P 21 -16877.039808  15908.924615  12537.705128    142.698632                    
V 21   3857.828091 -15261.066843  26515.486989     -0.010706                    
P 22  19696.015883  11372.055819  13918.452399     73.335816                    
V 22 -17170.053912    762.927976  24737.831679     -0.068860                    
P 23  -4575.686888 -14549.944062  21777.605507    108.882159                    
V 23  27518.995252  -1239.228343   4776.856783      0.066743                    
P 24  15219.109474 -19943.695081   7643.300620   -384.510534                    
V 24   -761.710456  11061.286743  29293.572560     -0.084541                    
P 25   4231.932603 -15412.683065 -21506.877319    479.846812                    
V 25  26623.528185     43.145502   5559.117062      0.015528                    
P 26 -25181.599259  -4050.461890  -8194.089072    212.422761                    
V 26   9876.585904  -3911.560704 -28538.979307     -0.029127                    
P 27 -18076.777515  -5066.056581  18692.770396    -77.758339                    
V 27 -11279.942385 -21358.616695 -16055.781019     -0.049872                    
P 28 -11557.981112 -10388.286644 -21562.362782    -59.833284                    
V 28  13049.785120 -24008.860932   4572.938453     -0.093558                    
P 29  -2032.429540 -23366.202027 -12409.626682   -610.018811                    
V 29   8731.861736  13209.698890 -26494.388924      0.001779                    
P 30   6554.876759  17112.867051  19258.090613   -461.981072                    
V 30 -13617.636806  20285.457300 -13739.771218      0.042030                    
P 31 -16414.496907  -1691.264371 -21090.855480   -226.258673                    
V 31  12999.789537 -22817.908738  -7960.638405     -0.003424                    
P 32 -16217.086194 -20592.875955  -4746.214500   -592.180005                    
V 32   -961.073272  -6681.481739  30853.768688     -0.040138                    
EOF
